ONEWEB-0230             
1 48769U 21045C   23307.89598723 -.00000767  00000+0 -20708-2 0  9992
2 48769  87.8969  89.6348 0001587  91.8343 268.2969 13.15548560118932
ONEWEB-0237             
1 48770U 21045D   23307.88487728 -.00005999  00000+0 -15971-1 0  9992
2 48770  87.8969  89.5549 0001358  76.4631 283.6650 13.15584751118650
ONEWEB-0235             
1 48771U 21045E   23307.93557653  .00007393  00000+0  19601-1 0  9996
2 48771  87.8965  89.5739 0001132  57.2295 302.8944 13.15507876118654
ONEWEB-0242             
1 48772U 21045F   23307.92922737  .00000758  00000+0  19783-2 0  9995
2 48772  87.8964  89.5659 0001510  87.3441 272.7862 13.15543821118690
ONEWEB-0241             
1 48773U 21045G   23307.91652525  .00002479  00000+0  65513-2 0  9994
2 48773  87.8973  89.5937 0000981  98.4314 261.6928 13.15530951118604
ONEWEB-0243             
1 48774U 21045H   23307.87214677 -.00009552  00000+0 -25419-1 0  9993
2 48774  87.8977  89.5598 0000750  55.9841 304.1361 13.15589698118627
ONEWEB-0222             
1 48775U 21045J   23307.86269198  .00010876  00000+0  28844-1 0  9995
2 48775  87.8964  89.5933 0001338  89.1148 271.0135 13.15496273118660
ONEWEB-0244             
1 48776U 21045K   23307.88171019 -.00000102  00000+0 -30617-3 0  9998
2 48776  87.8962  89.5716 0001583  85.0811 275.0500 13.15547883119230
